[{"OBJECT_NAME":"STARLINK-4574","OBJECT_ID":"2022-107AK","EPOCH":"2023-11-20T14:07:40.578240","MEAN_MOTION":15.08840072,"ECCENTRICITY":0.0001299,"INCLINATION":53.2193,"RA_OF_ASC_NODE":65.7151,"ARG_OF_PERICENTER":91.2476,"MEAN_ANOMALY":268.8665,"EPHEMERIS_TYPE":0,"CLASSIFICATION_TYPE":"U","NORAD_CAT_ID":53733,"ELEMENT_SET_NO":999,"REV_AT_EPOCH":6775,"BSTAR":5.987e-5,"MEAN_MOTION_DOT":6.65e-6,"MEAN_MOTION_DDOT":0},{"OBJECT_NAME":"STARLINK-4616","OBJECT_ID":"2022-107AL","EPOCH":"2023-11-20T13:46:26.949792","MEAN_MOTION":15.08841376,"ECCENTRICITY":0.0001356,"INCLINATION":53.2182,"RA_OF_ASC_NODE":65.623,"ARG_OF_PERICENTER":89.069,"MEAN_ANOMALY":271.0458,"EPHEMERIS_TYPE":0,"CLASSIFICATION_TYPE":"U","NORAD_CAT_ID":53734,"ELEMENT_SET_NO":999,"REV_AT_EPOCH":6775,"BSTAR":-4.5078e-7,"MEAN_MOTION_DOT":-2.95e-6,"MEAN_MOTION_DDOT":0},{"OBJECT_NAME":"STARLINK-4618","OBJECT_ID":"2022-107AM","EPOCH":"2023-11-20T14:48:40.333536","MEAN_MOTION":15.08839735,"ECCENTRICITY":0.0001343,"INCLINATION":53.2186,"RA_OF_ASC_NODE":75.1691,"ARG_OF_PERICENTER":93.0876,"MEAN_ANOMALY":267.027,"EPHEMERIS_TYPE":0,"CLASSIFICATION_TYPE":"U","NORAD_CAT_ID":53735,"ELEMENT_SET_NO":999,"REV_AT_EPOCH":6762,"BSTAR":7.5072e-5,"MEAN_MOTION_DOT":9.07e-6,"MEAN_MOTION_DDOT":0},{"OBJECT_NAME":"STARLINK-4652","OBJECT_ID":"2022-107AN","EPOCH":"2023-11-20T14:02:22.246944","MEAN_MOTION":15.08839784,"ECCENTRICITY":0.0001438,"INCLINATION":53.2189,"RA_OF_ASC_NODE":65.6913,"ARG_OF_PERICENTER":94.3231,"MEAN_ANOMALY":265.7926,"EPHEMERIS_TYPE":0,"CLASSIFICATION_TYPE":"U","NORAD_CAT_ID":53736,"ELEMENT_SET_NO":999,"REV_AT_EPOCH":6775,"BSTAR":0.00014326,"MEAN_MOTION_DOT":1.993e-5,"MEAN_MOTION_DDOT":0},{"OBJECT_NAME":"STARLINK-4646","OBJECT_ID":"2022-107AP","EPOCH":"2023-11-20T13:18:35.697312","MEAN_MOTION":15.08838006,"ECCENTRICITY":0.0001422,"INCLINATION":53.2196,"RA_OF_ASC_NODE":75.4878,"ARG_OF_PERICENTER":98.7064,"MEAN_ANOMALY":261.4089,"EPHEMERIS_TYPE":0,"CLASSIFICATION_TYPE":"U","NORAD_CAT_ID":53737,"ELEMENT_SET_NO":999,"REV_AT_EPOCH":6776,"BSTAR":5.0676e-5,"MEAN_MOTION_DOT":5.19e-6,"MEAN_MOTION_DDOT":0},{"OBJECT_NAME":"STARLINK-4662","OBJECT_ID":"2022-107AQ","EPOCH":"2023-11-20T14:43:19.972704","MEAN_MOTION":15.08855885,"ECCENTRICITY":0.0001263,"INCLINATION":53.219,"RA_OF_ASC_NODE":75.1453,"ARG_OF_PERICENTER":94.1271,"MEAN_ANOMALY":265.9865,"EPHEMERIS_TYPE":0,"CLASSIFICATION_TYPE":"U","NORAD_CAT_ID":53738,"ELEMENT_SET_NO":999,"REV_AT_EPOCH":6762,"BSTAR":0.00015027,"MEAN_MOTION_DOT":2.105e-5,"MEAN_MOTION_DDOT":0},{"OBJECT_NAME":"STARLINK-4607","OBJECT_ID":"2022-107AS","EPOCH":"2023-11-20T13:23:53.707200","MEAN_MOTION":15.088435,"ECCENTRICITY":0.0001246,"INCLINATION":53.2184,"RA_OF_ASC_NODE":75.5099,"ARG_OF_PERICENTER":90.0283,"MEAN_ANOMALY":270.0852,"EPHEMERIS_TYPE":0,"CLASSIFICATION_TYPE":"U","NORAD_CAT_ID":53740,"ELEMENT_SET_NO":999,"REV_AT_EPOCH":6776,"BSTAR":5.4011e-5,"MEAN_MOTION_DOT":5.72e-6,"MEAN_MOTION_DDOT":0},{"OBJECT_NAME":"STARLINK-4614","OBJECT_ID":"2022-107AT","EPOCH":"2023-11-20T12:52:47.663328","MEAN_MOTION":15.08842261,"ECCENTRICITY":0.000109,"INCLINATION":53.2188,"RA_OF_ASC_NODE":60.4826,"ARG_OF_PERICENTER":81.7013,"MEAN_ANOMALY":278.4103,"EPHEMERIS_TYPE":0,"CLASSIFICATION_TYPE":"U","NORAD_CAT_ID":53741,"ELEMENT_SET_NO":999,"REV_AT_EPOCH":6797,"BSTAR":4.6257e-5,"MEAN_MOTION_DOT":4.49e-6,"MEAN_MOTION_DDOT":0},{"OBJECT_NAME":"STARLINK-4637","OBJECT_ID":"2022-107AU","EPOCH":"2023-11-20T13:29:12.275232","MEAN_MOTION":15.08842142,"ECCENTRICITY":0.0001311,"INCLINATION":53.2182,"RA_OF_ASC_NODE":75.5343,"ARG_OF_PERICENTER":95.5635,"MEAN_ANOMALY":264.5506,"EPHEMERIS_TYPE":0,"CLASSIFICATION_TYPE":"U","NORAD_CAT_ID":53742,"ELEMENT_SET_NO":999,"REV_AT_EPOCH":6776,"BSTAR":7.6233e-5,"MEAN_MOTION_DOT":9.26e-6,"MEAN_MOTION_DDOT":0},{"OBJECT_NAME":"STARLINK-4645","OBJECT_ID":"2022-107AV","EPOCH":"2023-11-20T13:50:25.865664","MEAN_MOTION":15.08860998,"ECCENTRICITY":0.0001206,"INCLINATION":53.2171,"RA_OF_ASC_NODE":75.6248,"ARG_OF_PERICENTER":80.0595,"MEAN_ANOMALY":280.0533,"EPHEMERIS_TYPE":0,"CLASSIFICATION_TYPE":"U","NORAD_CAT_ID":53743,"ELEMENT_SET_NO":999,"REV_AT_EPOCH":6776,"BSTAR":0.00026776,"MEAN_MOTION_DOT":3.978e-5,"MEAN_MOTION_DDOT":0},{"OBJECT_NAME":"STARLINK-4670","OBJECT_ID":"2022-107AW","EPOCH":"2023-11-20T14:22:08.351328","MEAN_MOTION":15.08843797,"ECCENTRICITY":0.0001431,"INCLINATION":53.2192,"RA_OF_ASC_NODE":75.0588,"ARG_OF_PERICENTER":94.8489,"MEAN_ANOMALY":265.2666,"EPHEMERIS_TYPE":0,"CLASSIFICATION_TYPE":"U","NORAD_CAT_ID":53744,"ELEMENT_SET_NO":999,"REV_AT_EPOCH":6777,"BSTAR":9.151e-5,"MEAN_MOTION_DOT":1.169e-5,"MEAN_MOTION_DDOT":0},{"OBJECT_NAME":"STARLINK-4656","OBJECT_ID":"2022-107AX","EPOCH":"2023-11-20T13:55:43.666464","MEAN_MOTION":15.08846197,"ECCENTRICITY":0.0001433,"INCLINATION":53.2188,"RA_OF_ASC_NODE":75.6476,"ARG_OF_PERICENTER":90.0218,"MEAN_ANOMALY":270.0938,"EPHEMERIS_TYPE":0,"CLASSIFICATION_TYPE":"U","NORAD_CAT_ID":53745,"ELEMENT_SET_NO":999,"REV_AT_EPOCH":6776,"BSTAR":0.00011501,"MEAN_MOTION_DOT":1.543e-5,"MEAN_MOTION_DDOT":0},{"OBJECT_NAME":"STARLINK-4589","OBJECT_ID":"2022-107AY","EPOCH":"2023-11-20T13:45:07.206912","MEAN_MOTION":15.08842932,"ECCENTRICITY":0.0001182,"INCLINATION":53.2186,"RA_OF_ASC_NODE":75.6013,"ARG_OF_PERICENTER":90.4933,"MEAN_ANOMALY":269.6195,"EPHEMERIS_TYPE":0,"CLASSIFICATION_TYPE":"U","NORAD_CAT_ID":53746,"ELEMENT_SET_NO":999,"REV_AT_EPOCH":6776,"BSTAR":7.242e-5,"MEAN_MOTION_DOT":8.65e-6,"MEAN_MOTION_DDOT":0},{"OBJECT_NAME":"STARLINK-4669","OBJECT_ID":"2022-107BA","EPOCH":"2023-11-20T14:01:01.854336","MEAN_MOTION":15.08849911,"ECCENTRICITY":0.0001446,"INCLINATION":53.219,"RA_OF_ASC_NODE":75.6695,"ARG_OF_PERICENTER":90.403,"MEAN_ANOMALY":269.7127,"EPHEMERIS_TYPE":0,"CLASSIFICATION_TYPE":"U","NORAD_CAT_ID":53748,"ELEMENT_SET_NO":999,"REV_AT_EPOCH":6776,"BSTAR":9.4726e-5,"MEAN_MOTION_DOT":1.22e-5,"MEAN_MOTION_DDOT":0},{"OBJECT_NAME":"STARLINK-4680","OBJECT_ID":"2022-107BB","EPOCH":"2023-11-20T14:06:20.061216","MEAN_MOTION":15.08843455,"ECCENTRICITY":0.0001384,"INCLINATION":53.2189,"RA_OF_ASC_NODE":75.6584,"ARG_OF_PERICENTER":92.8687,"MEAN_ANOMALY":267.2464,"EPHEMERIS_TYPE":0,"CLASSIFICATION_TYPE":"U","NORAD_CAT_ID":53749,"ELEMENT_SET_NO":999,"REV_AT_EPOCH":6776,"BSTAR":7.8e-5,"MEAN_MOTION_DOT":9.54e-6,"MEAN_MOTION_DDOT":0},{"OBJECT_NAME":"STARLINK-4612","OBJECT_ID":"2022-107BC","EPOCH":"2023-11-20T14:11:38.886720","MEAN_MOTION":15.08842046,"ECCENTRICITY":0.0001391,"INCLINATION":53.2185,"RA_OF_ASC_NODE":75.7174,"ARG_OF_PERICENTER":90.8181,"MEAN_ANOMALY":269.2971,"EPHEMERIS_TYPE":0,"CLASSIFICATION_TYPE":"U","NORAD_CAT_ID":53750,"ELEMENT_SET_NO":999,"REV_AT_EPOCH":6777,"BSTAR":4.447e-5,"MEAN_MOTION_DOT":4.2e-6,"MEAN_MOTION_DDOT":0},{"OBJECT_NAME":"SHERPA-LTC2","OBJECT_ID":"2022-107BG","EPOCH":"2023-11-20T08:28:08.952960","MEAN_MOTION":14.52931186,"ECCENTRICITY":0.0458461,"INCLINATION":53.2382,"RA_OF_ASC_NODE":192.8554,"ARG_OF_PERICENTER":148.4157,"MEAN_ANOMALY":214.5218,"EPHEMERIS_TYPE":0,"CLASSIFICATION_TYPE":"U","NORAD_CAT_ID":53754,"ELEMENT_SET_NO":999,"REV_AT_EPOCH":6506,"BSTAR":0.00031413,"MEAN_MOTION_DOT":5.187e-5,"MEAN_MOTION_DDOT":0}]
