STARLINK-4574           
1 53733U 22107AK  23324.58866410  .00000665  00000+0  59870-4 0  9994
2 53733  53.2193  65.7151 0001299  91.2476 268.8665 15.08840072 67752
STARLINK-4616           
1 53734U 22107AL  23324.57392303 -.00000295  00000+0 -45078-6 0  9997
2 53734  53.2182  65.6230 0001356  89.0690 271.0458 15.08841376 67759
STARLINK-4618           
1 53735U 22107AM  23324.61713349  .00000907  00000+0  75072-4 0  9993
2 53735  53.2186  75.1691 0001343  93.0876 267.0270 15.08839735 67627
STARLINK-4652           
1 53736U 22107AN  23324.58497971  .00001993  00000+0  14326-3 0  9990
2 53736  53.2189  65.6913 0001438  94.3231 265.7926 15.08839784 67757
STARLINK-4646           
1 53737U 22107AP  23324.55457983  .00000519  00000+0  50676-4 0  9999
2 53737  53.2196  75.4878 0001422  98.7064 261.4089 15.08838006 67760
STARLINK-4662           
1 53738U 22107AQ  23324.61342561  .00002105  00000+0  15027-3 0  9995
2 53738  53.2190  75.1453 0001263  94.1271 265.9865 15.08855885 67624
STARLINK-4607           
1 53740U 22107AS  23324.55826050  .00000572  00000+0  54011-4 0  9994
2 53740  53.2184  75.5099 0001246  90.0283 270.0852 15.08843500 67768
STARLINK-4614           
1 53741U 22107AT  23324.53666277  .00000449  00000+0  46257-4 0  9992
2 53741  53.2188  60.4826 0001090  81.7013 278.4103 15.08842261 67976
STARLINK-4637           
1 53742U 22107AU  23324.56194763  .00000926  00000+0  76233-4 0  9999
2 53742  53.2182  75.5343 0001311  95.5635 264.5506 15.08842142 67769
STARLINK-4645           
1 53743U 22107AV  23324.57668826  .00003978  00000+0  26776-3 0  9993
2 53743  53.2171  75.6248 0001206  80.0595 280.0533 15.08860998 67762
STARLINK-4670           
1 53744U 22107AW  23324.59870777  .00001169  00000+0  91510-4 0  9995
2 53744  53.2192  75.0588 0001431  94.8489 265.2666 15.08843797 67773
STARLINK-4656           
1 53745U 22107AX  23324.58036651  .00001543  00000+0  11501-3 0  9997
2 53745  53.2188  75.6476 0001433  90.0218 270.0938 15.08846197 67763
STARLINK-4589           
1 53746U 22107AY  23324.57300008  .00000865  00000+0  72420-4 0  9991
2 53746  53.2186  75.6013 0001182  90.4933 269.6195 15.08842932 67760
STARLINK-4669           
1 53748U 22107BA  23324.58404924  .00001220  00000+0  94726-4 0  9995
2 53748  53.2190  75.6695 0001446  90.4030 269.7127 15.08849911 67764
STARLINK-4680           
1 53749U 22107BB  23324.58773219  .00000954  00000+0  78000-4 0  9992
2 53749  53.2189  75.6584 0001384  92.8687 267.2464 15.08843455 67769
STARLINK-4612           
1 53750U 22107BC  23324.59142230  .00000420  00000+0  44470-4 0  9990
2 53750  53.2185  75.7174 0001391  90.8181 269.2971 15.08842046 67779
SHERPA-LTC2             
1 53754U 22107BG  23324.35288140  .00005187  00000+0  31413-3 0  9996
2 53754  53.2382 192.8554 0458461 148.4157 214.5218 14.52931186 65061
